NORAD_CAT_ID,OBJECT_NAME,OBJECT_TYPE,EPOCH,MEAN_MOTION,ECCENTRICITY,INCLINATION,RA_OF_ASC_NODE,ARG_OF_PERICENTER,MEAN_ANOMALY,BSTAR,MEAN_MOTION_DOT,MEAN_MOTION_DDOT,TLE_LINE0,TLE_LINE1,TLE_LINE2,SEMIMAJOR_AXIS,PERIOD,APOGEE,PERIGEE,DECAYED
53277.0,STARLINK-4178,PAYLOAD,2022-09-09 22:00:00,15.73251149,0.0002021999999999,53.217,168.8378,18.4136,270.8569,-0.00033351,-0.00047271,0.0,0 STARLINK-4178,1 53277U 22086AM  22252.91667824 -.00047271  00000-0 -33351-3 0  9999,2 53277  53.2170 168.8378 0002022  18.4136 270.8569 15.73251149  1303,6727.749,91.53,350.975,348.254,0.0
53277.0,STARLINK-4178,PAYLOAD,2022-09-10 04:00:00,15.73166017,0.000239,53.2171,167.5969,21.0152,244.951,0.00024921,0.0003444999999999,0.0,0 STARLINK-4178,1 53277U 22086AM  22253.16667824  .00034450  00000-0  24921-3 0  9993,2 53277  53.2171 167.5969 0002390  21.0152 244.9510 15.73166017  8126,6727.9919999999975,91.535,351.465,348.249,0.0
53277.0,STARLINK-4178,PAYLOAD,2022-09-10 12:00:00,15.73205633,0.0002162,53.2174,165.9509,26.8562,328.0732,-0.00023391,-0.0003333,0.0,0 STARLINK-4178,1 53277U 22086AM  22253.50001157 -.00033330  00000-0 -23391-3 0  9990,2 53277  53.2174 165.9509 0002162  26.8562 328.0732 15.73205633  8179,6727.879,91.533,351.199,348.29,0.0
53277.0,STARLINK-4178,PAYLOAD,2022-09-10 14:00:01,15.73148325,0.0002139,53.2174,165.5382,26.6454,80.5223,0.00048865,0.0006837,0.0,0 STARLINK-4178,1 53277U 22086AM  22253.58334491  .00068370  00000-0  48865-3 0  9991,2 53277  53.2174 165.5382 0002139  26.6454  80.5223 15.73148325  1303,6728.043000000002,91.536,351.347,348.468,0.0
53277.0,STARLINK-4178,PAYLOAD,2022-09-10 22:00:00,15.73216928,0.0002246,53.2174,163.8897,27.7566,168.298,-0.00053706,-0.00075386,0.0,0 STARLINK-4178,1 53277U 22086AM  22253.91667824 -.00075386  00000-0 -53706-3 0  9994,2 53277  53.2174 163.8897 0002246  27.7566 168.2980 15.73216928  1309,6727.847,91.532,351.223,348.201,0.0
53277.0,STARLINK-4178,PAYLOAD,2022-09-11 06:00:00,15.73152522,0.000237,53.2165,162.2367,22.4383,262.5353,0.00059497,0.00083549,0.0,0 STARLINK-4178,1 53277U 22086AM  22254.25001157  .00083549  00000-0  59497-3 0  9994,2 53277  53.2165 162.2367 0002370  22.4383 262.5353 15.73152522  8297,6728.031,91.536,351.49,348.301,0.0
53277.0,STARLINK-4178,PAYLOAD,2022-09-11 14:00:01,15.73212139,0.0002112999999999,53.2167,160.5781,23.7716,350.1177,-0.00044302,-0.00062375,0.0,0 STARLINK-4178,1 53277U 22086AM  22254.58334491 -.00062375  00000-0 -44302-3 0  9995,2 53277  53.2167 160.5781 0002113  23.7716 350.1177 15.73212139  1303,6727.861,91.532,351.147,348.30400000000014,0.0
53277.0,STARLINK-4178,PAYLOAD,2022-09-11 22:00:00,15.73192267,0.0002290999999999,53.2172,158.9227,22.3091,80.4921,0.00014364,0.00019579,0.0,0 STARLINK-4178,1 53277U 22086AM  22254.91667824  .00019579  00000-0  14364-3 0  9992,2 53277  53.2172 158.9227 0002291  22.3091  80.4921 15.73192267  8400,6727.917,91.534,351.324,348.241,0.0
53277.0,STARLINK-4178,PAYLOAD,2022-09-12 06:00:00,15.73207189,0.0002274,53.2165,157.293,26.7425,165.1052,-0.00021549,-0.00030766,0.0,0 STARLINK-4178,1 53277U 22086AM  22255.25001157 -.00030766  00000-0 -21549-3 0  9997,2 53277  53.2165 157.2930 0002274  26.7425 165.1052 15.73207189  8456,6727.875,91.533,351.27,348.21,0.0
53277.0,STARLINK-4178,PAYLOAD,2022-09-12 14:00:01,15.731353,0.0002112,53.2169,155.6413,32.1291,248.6564,0.00080428,0.0011347999999999,0.0,0 STARLINK-4178,1 53277U 22086AM  22255.58334491  .00113480  00000-0  80428-3 0  9997,2 53277  53.2169 155.6413 0002112  32.1291 248.6564 15.73135300  1308,6728.08,91.537,351.366,348.524,0.0
53277.0,STARLINK-4178,PAYLOAD,2022-09-12 22:00:00,15.73257347,0.0002168,53.2168,153.9931,30.0246,339.6541,-0.00049889,-0.00070235,0.0,0 STARLINK-4178,1 53277U 22086AM  22255.91667824 -.00070235  00000-0 -49889-3 0  9991,2 53277  53.2168 153.9931 0002168  30.0246 339.6541 15.73257347  8557,6727.732,91.53,351.055,348.13800000000015,0.0
53277.0,STARLINK-4178,PAYLOAD,2022-09-13 14:00:01,15.73178661,0.0001810999999999,53.2161,150.6929,24.199,163.3753,0.00025108,0.00034732,0.0,0 STARLINK-4178,1 53277U 22086AM  22256.58334491  .00034732  00000-0  25108-3 0  9994,2 53277  53.2161 150.6929 0001811  24.1990 163.3753 15.73178661  1309,6727.956,91.534,351.039,348.603,0.0
53277.0,STARLINK-4178,PAYLOAD,2022-09-13 16:00:00,15.73203354,0.0001815,53.2161,150.2761,27.0941,272.704,-7.051e-05,-0.00010506,0.0,0 STARLINK-4178,1 53277U 22086AM  22256.66667824 -.00010506  00000-0 -70510-4 0  9995,2 53277  53.2161 150.2761 0001815  27.0941 272.7040 15.73203354  8670,6727.886,91.533,350.972,348.53,0.0
53277.0,STARLINK-4178,PAYLOAD,2022-09-13 22:00:00,15.73253302,0.0001952,53.2165,149.0349,29.4736,247.018,-0.0013957,-0.00192542,0.0,0 STARLINK-4178,1 53277U 22086AM  22256.91667824 -.00192542  00000-0 -13957-2 0  9994,2 53277  53.2165 149.0349 0001952  29.4736 247.0180 15.73253302  1303,6727.743,91.53,350.921,348.295,0.0
53277.0,STARLINK-4178,PAYLOAD,2022-09-14 06:00:00,15.73044086,0.0002106,53.2165,147.3789,32.7738,332.6479,0.0017144,0.00245509,0.0,0 STARLINK-4178,1 53277U 22086AM  22257.25001157  .00245509  00000-0  17144-2 0  9995,2 53277  53.2165 147.3789 0002106  32.7738 332.6479 15.73044086  8769,6728.34,91.542,351.622,348.788,0.0
53277.0,STARLINK-4178,PAYLOAD,2022-09-14 14:00:01,15.73177065,0.0001825,53.2163,145.7441,24.7749,69.6157,0.00038253,0.00053356,0.0,0 STARLINK-4178,1 53277U 22086AM  22257.58334491  .00053356  00000-0  38253-3 0  9993,2 53277  53.2163 145.7441 0001825  24.7749  69.6157 15.73177065  1301,6727.9609999999975,91.535,351.05300000000005,348.598,0.0
53277.0,STARLINK-4178,PAYLOAD,2022-09-14 20:00:01,15.73249035,0.0001979,53.2165,144.50799999999995,25.476,45.5934,-0.00068068,-0.00095283,0.0,0 STARLINK-4178,1 53277U 22086AM  22257.83334491 -.00095283  00000-0 -68068-3 0  9995,2 53277  53.2165 144.5080 0001979  25.4760  45.5934 15.73249035  8861,6727.755,91.53,350.952,348.289,0.0
53277.0,STARLINK-4178,PAYLOAD,2022-09-14 22:00:00,15.73223898,0.0002073,53.2163,144.0961,25.1709,158.1449,-0.00040885,-0.00057673,0.0,0 STARLINK-4178,1 53277U 22086AM  22257.91667824 -.00057673  00000-0 -40885-3 0  9991,2 53277  53.2163 144.0961 0002073  25.1709 158.1449 15.73223898  1301,6727.8269999999975,91.532,351.087,348.297,0.0
53277.0,STARLINK-4178,PAYLOAD,2022-09-15 06:00:00,15.732378099999998,0.0002070999999999,53.2157,142.4468,23.9559,248.2815,-0.00049164,-0.00069173,0.0,0 STARLINK-4178,1 53277U 22086AM  22258.25001157 -.00069173  00000-0 -49164-3 0  9997,2 53277  53.2157 142.4468 0002071  23.9559 248.2815 15.73237810  8927,6727.7869999999975,91.531,351.046,348.259,0.0
53277.0,STARLINK-4178,PAYLOAD,2022-09-15 14:00:01,15.73138809,0.0001794,53.2158,140.7955,29.9429,331.255,0.00019102,0.00026202,0.0,0 STARLINK-4178,1 53277U 22086AM  22258.58334491  .00026202  00000-0  19102-3 0  9996,2 53277  53.2158 140.7955 0001794  29.9429 331.2550 15.73138809  1316,6728.07,91.537,351.142,348.728,0.0
53277.0,STARLINK-4178,PAYLOAD,2022-09-15 22:00:00,15.73176812,0.0001976999999999,53.2158,139.148,27.762,62.2932,0.00081789,0.00115646,0.0,0 STARLINK-4178,1 53277U 22086AM  22258.91667824  .00115646  00000-0  81789-3 0  9993,2 53277  53.2158 139.1480 0001977  27.7620  62.2932 15.73176812  1303,6727.9609999999975,91.535,351.156,348.496,0.0
53277.0,STARLINK-4178,PAYLOAD,2022-09-16 06:00:00,15.73274467,0.0002029999999999,53.216,137.4986,25.4951,153.4303,-0.00060602,-0.00085095,0.0,0 STARLINK-4178,1 53277U 22086AM  22259.25001157 -.00085095  00000-0 -60602-3 0  9999,2 53277  53.2160 137.4986 0002030  25.4951 153.4303 15.73274467  9084,6727.683000000001,91.529,350.914,348.182,0.0
53277.0,STARLINK-4178,PAYLOAD,2022-09-16 14:00:01,15.731911300000002,0.0001835,53.2163,135.847,29.4267,238.4954,-9.3217e-05,-0.00013678,0.0,0 STARLINK-4178,1 53277U 22086AM  22259.58334491 -.00013678  00000-0 -93217-4 0  9992,2 53277  53.2163 135.8470 0001835  29.4267 238.4954 15.73191130  1301,6727.92,91.534,351.02,348.551,0.0
53277.0,STARLINK-4178,PAYLOAD,2022-09-16 22:00:00,15.73166014,0.0002032999999999,53.2165,134.1995,26.1851,330.6257,0.00021038,0.00028965,0.0,0 STARLINK-4178,1 53277U 22086AM  22259.91667824  .00028965  00000-0  21038-3 0  9992,2 53277  53.2165 134.1995 0002033  26.1851 330.6257 15.73166014  1305,6727.9919999999975,91.535,351.225,348.48900000000015,0.0
53277.0,STARLINK-4178,PAYLOAD,2022-09-17 06:00:00,15.73223719,0.0002094,53.2161,132.5498,26.3137,59.3793,-0.00031064,-0.00044038,0.0,0 STARLINK-4178,1 53277U 22086AM  22260.25001157 -.00044038  00000-0 -31064-3 0  9993,2 53277  53.2161 132.5498 0002094  26.3137  59.3793 15.73223719  9244,6727.828,91.532,351.101,348.284,0.0
53277.0,STARLINK-4178,PAYLOAD,2022-09-17 14:00:01,15.73166982,0.0001888,53.2162,130.8988,34.059,140.5926,0.00045893,0.00064192,0.0,0 STARLINK-4178,1 53277U 22086AM  22260.58334491  .00064192  00000-0  45893-3 0  9995,2 53277  53.2162 130.8988 0001888  34.0590 140.5926 15.73166982  1307,6727.989000000001,91.535,351.125,348.584,0.0
53277.0,STARLINK-4178,PAYLOAD,2022-09-17 22:00:00,15.73209345,0.0002141,53.2165,129.2512,32.173,231.3947,0.00027418,0.00038051,0.0,0 STARLINK-4178,1 53277U 22086AM  22260.91667824  .00038051  00000-0  27418-3 0  9999,2 53277  53.2165 129.2512 0002141  32.1730 231.3947 15.73209345  1306,6727.869000000002,91.533,351.1740000000001,348.293,0.0
53277.0,STARLINK-4178,PAYLOAD,2022-09-18 14:00:01,15.73251052,0.000198,53.2169,125.9503,35.082,46.4545,-0.00067831,-0.00094965,0.0,0 STARLINK-4178,1 53277U 22086AM  22261.58335648 -.00094965  00000-0 -67831-3 0  9990,2 53277  53.2169 125.9503 0001980  35.0820  46.4545 15.73251052  1306,6727.75,91.53,350.94699999999995,348.283,0.0
53277.0,STARLINK-4178,PAYLOAD,2022-09-18 22:00:00,15.73075794,0.0002314,53.2168,124.3025,34.3946,136.0602,0.00047229,0.00065835,0.0,0 STARLINK-4178,1 53277U 22086AM  22261.91667824  .00065835  00000-0  47229-3 0  9992,2 53277  53.2168 124.3025 0002314  34.3946 136.0602 15.73075794  1307,6728.249,91.54,351.671,348.557,0.0
